NORAD_CAT_ID,OBJECT_NAME,OBJECT_TYPE,EPOCH,MEAN_MOTION,ECCENTRICITY,INCLINATION,RA_OF_ASC_NODE,ARG_OF_PERICENTER,MEAN_ANOMALY,BSTAR,MEAN_MOTION_DOT,MEAN_MOTION_DDOT,TLE_LINE0,TLE_LINE1,TLE_LINE2,SEMIMAJOR_AXIS,PERIOD,APOGEE,PERIGEE,DECAYED
52342.0,STARLINK-3850,PAYLOAD,2024-07-02 10:07:16,15.0884559,8.56e-05,53.2159,81.2839,83.0014,277.1075,0.0010736,0.00016842,0.0,0 STARLINK-3850,1 52342U 22045M   24184.42171655  .00016842  00000-0  10736-2 0  9999,2 52342  53.2159  81.2839 0000856  83.0014 277.1075 15.08845590122895,6917.863,95.437,540.32,539.136,0.0
52342.0,STARLINK-3850,PAYLOAD,2024-07-02 21:14:58,15.08841534,0.0002039,53.217,79.2038,85.1153,275.0072,0.0009809,0.00015358,0.0,0 STARLINK-3850,1 52342U 22045M   24184.88540297  .00015358  00000-0  98090-3 0  9992,2 52342  53.2170  79.2038 0002039  85.1153 275.0072 15.08841534122964,6917.876,95.437,541.151,538.33,0.0
52342.0,STARLINK-3850,PAYLOAD,2024-07-03 09:58:03,15.08837151,0.0001127,53.2165,76.8207,92.0288,268.0833,0.00022817,3.345e-05,0.0,0 STARLINK-3850,1 52342U 22045M   24185.41532086  .00003345  00000-0  22817-3 0  9996,2 52342  53.2165  76.8207 0001127  92.0288 268.0833 15.08837151123049,6917.889,95.438,540.534,538.974,0.0
52342.0,STARLINK-3850,PAYLOAD,2024-07-03 21:05:45,15.08842796,0.0001231,53.2171,74.7393,87.6554,272.4579,0.00025802,3.821e-05,0.0,0 STARLINK-3850,1 52342U 22045M   24185.87900049  .00003821  00000-0  25802-3 0  9990,2 52342  53.2171  74.7393 0001231  87.6554 272.4579 15.08842796123116,6917.872,95.437,540.588,538.885,0.0
52342.0,STARLINK-3850,PAYLOAD,2024-07-04 09:48:50,15.08834309,0.000121,53.215,72.36,82.2968,277.8162,-1.8917e-05,-5.89e-06,0.0,0 STARLINK-3850,1 52342U 22045M   24186.40892165 -.00000589  00000-0 -18917-4 0  9999,2 52342  53.2150  72.3600 0001210  82.2968 277.8162 15.08834309123191,6917.898,95.438,540.6,538.926,0.0
52342.0,STARLINK-3850,PAYLOAD,2024-07-04 20:56:32,15.08837429,0.0001299,53.2152,70.2777,85.1064,275.0076,5.5218e-05,5.91e-06,0.0,0 STARLINK-3850,1 52342U 22045M   24186.87260213  .00000591  00000-0  55218-4 0  9999,2 52342  53.2152  70.2777 0001299  85.1064 275.0076 15.08837429123269,6917.888,95.438,540.652,538.855,0.0
52342.0,STARLINK-3850,PAYLOAD,2024-07-04 22:31:55,15.08839029,0.0001236,53.2167,69.9779,92.66,267.4534,1.6958e-05,-1.8e-07,0.0,0 STARLINK-3850,1 52342U 22045M   24186.93884082 -.00000018  00000-0  16958-4 0  9995,2 52342  53.2167  69.9779 0001236  92.6600 267.4534 15.08839029123275,6917.883,95.438,540.603,538.893,0.0
52342.0,STARLINK-3850,PAYLOAD,2024-07-05 09:39:37,15.0884361,0.0001362,53.2175,67.9019,80.9257,279.1889,0.00013472,1.857e-05,0.0,0 STARLINK-3850,1 52342U 22045M   24187.40252065  .00001857  00000-0  13472-3 0  9996,2 52342  53.2175  67.9019 0001362  80.9257 279.1889 15.08843610123349,6917.869,95.437,540.677,538.792,0.0
52342.0,STARLINK-3850,PAYLOAD,2024-07-05 22:22:42,15.08848117,0.0001269,53.2169,65.5221,95.9346,264.1791,0.00024273,3.578e-05,0.0,0 STARLINK-3850,1 52342U 22045M   24187.93243805  .00003578  00000-0  24273-3 0  9999,2 52342  53.2169  65.5221 0001269  95.9346 264.1791 15.08848117123424,6917.856,95.437,540.598,538.843,0.0
52342.0,STARLINK-3850,PAYLOAD,2024-07-06 01:33:28,15.08851313,0.0001313,53.2172,64.9263,97.518,262.5961,0.00032376,4.87e-05,0.0,0 STARLINK-3850,1 52342U 22045M   24188.06491667  .00004870  00000-0  32376-3 0  9994,2 52342  53.2172  64.9263 0001313  97.5180 262.5961 15.08851313123446,6917.846,95.437,540.619,538.802,0.0
52342.0,STARLINK-3850,PAYLOAD,2024-07-06 20:38:07,15.08834941,0.0001475,53.2178,61.362,87.2319,272.8842,-6.981e-05,-1.399e-05,0.0,0 STARLINK-3850,1 52342U 22045M   24188.85980388 -.00001399  00000-0 -69810-4 0  9993,2 52342  53.2178  61.3620 0001475  87.2319 272.8842 15.08834941123562,6917.896,95.438,540.781,538.74,0.0
52342.0,STARLINK-3850,PAYLOAD,2024-07-06 22:13:30,15.08835773,0.0001462,53.2179,61.0644,88.6399,271.4761,-2.8803e-05,-7.46e-06,0.0,0 STARLINK-3850,1 52342U 22045M   24188.92604384 -.00000746  00000-0 -28803-4 0  9992,2 52342  53.2179  61.0644 0001462  88.6399 271.4761 15.08835773123575,6917.893,95.438,540.77,538.747,0.0
52342.0,STARLINK-3850,PAYLOAD,2024-07-07 22:04:17,15.08844981,0.0001421,53.2173,56.6019,94.322,265.7934,0.00039302,5.973e-05,0.0,0 STARLINK-3850,1 52342U 22045M   24189.91964434  .00005973  00000-0  39302-3 0  9997,2 52342  53.2173  56.6019 0001421  94.3220 265.7934 15.08844981123723,6917.865,95.437,540.713,538.747,0.0
52342.0,STARLINK-3850,PAYLOAD,2024-07-08 07:36:36,15.08843606,0.0001403,53.2171,54.8149,94.459,265.6562,0.00020945,3.047e-05,0.0,0 STARLINK-3850,1 52342U 22045M   24190.31708347  .00003047  00000-0  20945-3 0  9995,2 52342  53.2171  54.8149 0001403  94.4590 265.6562 15.08843606123781,6917.869,95.437,540.705,538.764,0.0
52342.0,STARLINK-3850,PAYLOAD,2024-07-08 21:55:04,15.08845842,0.0001246,53.2167,52.1432,94.2682,265.8453,0.00019333,2.791e-05,0.0,0 STARLINK-3850,1 52342U 22045M   24190.91324235  .00002791  00000-0  19333-3 0  9995,2 52342  53.2167  52.1432 0001246  94.2682 265.8453 15.08845842123872,6917.863,95.437,540.589,538.866,0.0
52342.0,STARLINK-3850,PAYLOAD,2024-07-09 01:05:50,15.08851544,0.0001322,53.2172,51.5477,94.4363,265.678,0.00034411,5.195e-05,0.0,0 STARLINK-3850,1 52342U 22045M   24191.04572057  .00005195  00000-0  34411-3 0  9992,2 52342  53.2172  51.5477 0001322  94.4363 265.6780 15.08851544123892,6917.845,95.437,540.625,538.796,0.0
52342.0,STARLINK-3850,PAYLOAD,2024-07-09 20:10:28,15.0883521,0.0001394,53.2172,47.9759,95.5571,264.558,-0.00010157,-1.904e-05,0.0,0 STARLINK-3850,1 52342U 22045M   24191.84060475 -.00001904  00000-0 -10157-3 0  9993,2 52342  53.2172  47.9759 0001394  95.5571 264.5580 15.08835210124019,6917.895,95.438,540.724,538.796,0.0
52342.0,STARLINK-3850,PAYLOAD,2024-07-10 13:39:43,15.08831526,0.0001302,53.2171,44.7079,87.0157,273.0984,-7.5143e-05,-1.483e-05,0.0,0 STARLINK-3850,1 52342U 22045M   24192.56924870 -.00001483  00000-0 -75143-4 0  9990,2 52342  53.2171  44.7079 0001302  87.0157 273.0984 15.08831526124124,6917.906,95.438,540.672,538.871,0.0
52342.0,STARLINK-3850,PAYLOAD,2024-07-10 21:36:38,15.08835358,0.0001201,53.2161,43.2207,86.6979,273.415,-5.4174e-05,-1.15e-05,0.0,0 STARLINK-3850,1 52342U 22045M   24192.90044687 -.00001150  00000-0 -54174-4 0  9999,2 52342  53.2161  43.2207 0001201  86.6979 273.4150 15.08835358124176,6917.895,95.438,540.59,538.929,0.0
52342.0,STARLINK-3850,PAYLOAD,2024-07-11 13:30:30,15.08838274,0.0001298,53.2158,40.248,86.1602,273.9539,0.00011093,1.478e-05,0.0,0 STARLINK-3850,1 52342U 22045M   24193.56284846  .00001478  00000-0  11093-3 0  9998,2 52342  53.2158  40.2480 0001298  86.1602 273.9539 15.08838274124273,6917.886,95.438,540.649,538.853,0.0
52342.0,STARLINK-3850,PAYLOAD,2024-07-12 13:21:17,15.08841246,0.0001622,53.2147,35.7869,86.2789,273.8388,7.8858e-05,9.67e-06,0.0,0 STARLINK-3850,1 52342U 22045M   24194.55644715  .00000967  00000-0  78858-4 0  9998,2 52342  53.2147  35.7869 0001622  86.2789 273.8388 15.08841246124420,6917.877,95.437,540.864,538.62,0.0
52342.0,STARLINK-3850,PAYLOAD,2024-07-12 19:42:49,15.08844348,0.0001607,53.2134,34.5953,93.4843,266.6333,0.0001285,1.758e-05,0.0,0 STARLINK-3850,1 52342U 22045M   24194.82140592  .00001758  00000-0  12850-3 0  9990,2 52342  53.2134  34.5953 0001607  93.4843 266.6333 15.08844348124461,6917.867,95.437,540.844,538.62,0.0
52342.0,STARLINK-3850,PAYLOAD,2024-07-13 13:12:04,15.08837831,0.0001328,53.2154,31.325,95.7979,264.3165,-0.0001174,-2.156e-05,0.0,0 STARLINK-3850,1 52342U 22045M   24195.55004772 -.00002156  00000-0 -11740-3 0  9992,2 52342  53.2154  31.3250 0001328  95.7979 264.3165 15.08837831124572,6917.887,95.438,540.671,538.833,0.0
52342.0,STARLINK-3850,PAYLOAD,2024-07-13 19:33:36,15.08837358,0.0001465,53.2175,30.1371,92.289,267.827,-2.0838e-05,-6.2e-06,0.0,0 STARLINK-3850,1 52342U 22045M   24195.81500911 -.00000620  00000-0 -20838-4 0  9990,2 52342  53.2175  30.1371 0001465  92.2890 267.8270 15.08837358124616,6917.888,95.438,540.767,538.74,0.0
52342.0,STARLINK-3850,PAYLOAD,2024-07-13 21:08:59,15.0884108,0.0001494,53.2182,29.84,90.8709,269.2454,6.8234e-05,7.98e-06,0.0,0 STARLINK-3850,1 52342U 22045M   24195.88124832  .00000798  00000-0  68234-4 0  9997,2 52342  53.2182  29.8400 0001494  90.8709 269.2454 15.08841080124625,6917.877,95.437,540.776,538.709,0.0
52342.0,STARLINK-3850,PAYLOAD,2024-07-14 13:02:51,15.08838012,0.0001462,53.2181,26.866,88.4873,271.6287,0.00015194,2.131e-05,0.0,0 STARLINK-3850,1 52342U 22045M   24196.54365119  .00002131  00000-0  15194-3 0  9995,2 52342  53.2181  26.8660 0001462  88.4873 271.6287 15.08838012124722,6917.886,95.438,540.763,538.74,0.0
52342.0,STARLINK-3850,PAYLOAD,2024-07-14 20:59:46,15.08849205,0.0001465,53.2181,25.3783,88.5263,271.5897,0.00034736,5.246e-05,0.0,0 STARLINK-3850,1 52342U 22045M   24196.87484760  .00005246  00000-0  34736-3 0  9998,2 52342  53.2181  25.3783 0001465  88.5263 271.5897 15.08849205124776,6917.852,95.437,540.731,538.704,0.0
52342.0,STARLINK-3850,PAYLOAD,2024-07-15 19:15:10,15.08841343,0.0001331,53.218,21.2168,88.4909,271.6236,8.8571e-05,1.122e-05,0.0,0 STARLINK-3850,1 52342U 22045M   24197.80220834  .00001122  00000-0  88571-4 0  9998,2 52342  53.2180  21.2168 0001331  88.4909 271.6236 15.08841343124914,6917.876,95.437,540.662,538.821,0.0
52342.0,STARLINK-3850,PAYLOAD,2024-07-15 22:25:56,15.08845072,0.0001362,53.2174,20.6214,87.8428,272.2721,0.00011132,1.484e-05,0.0,0 STARLINK-3850,1 52342U 22045M   24197.93468644  .00001484  00000-0  11132-3 0  9994,2 52342  53.2174  20.6214 0001362  87.8428 272.2721 15.08845072124936,6917.865,95.437,540.672,538.788,0.0
52342.0,STARLINK-3850,PAYLOAD,2024-07-16 04:47:29,15.0884217,0.0001345,53.2175,19.4308,83.552,276.5625,5.14e-05,5.3e-06,0.0,0 STARLINK-3850,1 52342U 22045M   24198.19964727  .00000530  00000-0  51400-4 0  9990,2 52342  53.2175  19.4308 0001345  83.5520 276.5625 15.08842170124974,6917.874,95.437,540.669,538.808,0.0
